id,name,address_name,lon,lat,rubrics
70000001069441574,"СберБанк, банкомат","Гладкий остров, 1",30.235862,59.903276,Банкоматы
70000001061124019,"Банк Санкт-Петербург, банкомат","Межевой канал, 5",30.250573,59.911106,Банкоматы
70000001020598567,"СберБанк, банкомат","Межевой канал, 3 к2",30.252885,59.910966,Банкоматы
70000001024354141,"Почта Банк, банкомат","Двинская улица, 15",30.242787,59.909562,Банкоматы
70000001097458056,СберБанк,"площадь Стачек, 9",30.272152,59.899755,"Банки,Ипотечные кредиты,Обмен валюты,Электронные подписи,Регистрация и ликвидация предприятий,Операции на фондовом рынке"
70000001104964216,Банк ВТБ,"Стачек проспект, 18",30.279339,59.895395,Банки
5348552840554041,Банк СГБ,"улица Маршала Говорова, 35а",30.279418,59.888696,"Банки,Обмен валюты,Ипотечные кредиты"
70000001025784906,Почта Банк,"Стачек проспект, 18",30.279339,59.895395,Банки
70000001006492380,"Севергазбанк, банкомат","улица Маршала Говорова, 35 лит А",30.279418,59.888696,Банкоматы
5348552838493477,"Банк Авангард, экcпресс-офис","Стачек проспект, 99",30.248618,59.858925,"Банки,Обмен валюты"
70000001104965201,Банк ВТБ,"улица Маршала Казакова, 1 к1",30.248853,59.859906,Банки
70000001025368662,Почта Банк,"улица Маршала Казакова, 1 к1 лит Д",30.247171,59.860189,Банки
5348552838496531,"Альфа-Банк, банкомат","Стачек проспект, 99",30.248821,59.858817,Банкоматы
70000001059706307,"СберБанк, банкомат","Стачек проспект, 99",30.248848,59.858829,Банкоматы
70000001060192966,"СберБанк, банкомат","Стачек проспект, 105 к1",30.241037,59.855178,Банкоматы
70000001039834361,"Т-Банк, банкомат","Стачек проспект, 99",30.248468,59.858865,Банкоматы
70000001090357697,"Т-Банк, банкомат","дорога на Турухтанные острова, 6 к2",30.25139,59.867482,Банкоматы
70000001044846233,"Т-Банк, банкомат","Стачек проспект, 105 к1",30.241037,59.855178,Банкоматы
70000001084239283,"СберБанк, банкомат",,30.229996,59.885546,Банкоматы
5348552838561018,"Райффайзенбанк, банкомат","Стачек проспект, 99",30.248834,59.858823,Банкоматы
70000001018060827,"Альфа-Банк, банкомат","Стачек проспект, 99",30.248446,59.858878,Банкоматы
70000001024409314,"Почта Банк, банкомат","Стачек проспект, 105",30.239999,59.85516,Банкоматы
70000001025368674,"Почта Банк, банкомат","улица Маршала Казакова, 1 к1 лит Д",30.247171,59.860189,Банкоматы
70000001082600862,"МТС Банк, терминал","Стачек проспект, 99",30.248759,59.858756,Платёжные терминалы
70000001094179710,"ВТБ, банкомат","Стачек проспект, 99",30.24848,59.858858,Банкоматы
5348552838587666,Банк Санкт-Петербург,"Стачек проспект, 47 лит Е",30.259947,59.879839,"Банки,Обмен валюты,Ипотечные кредиты"
5348552838493692,Альфа-банк,"Стачек проспект, 47 лит Е",30.261356,59.881239,"Банки,Регистрация и ликвидация предприятий"
70000001017842646,СберБанк,"улица Маршала Говорова, 12 к1",30.26638,59.878836,"Банки,Обмен валюты,Ипотечные кредиты,Операции на фондовом рынке,Регистрация и ликвидация предприятий,ПИФы,Инвестиционные драгоценные металлы,Электронные подписи"
70000001025029480,Банк ВТБ,"Стачек проспект, 47 лит А",30.258471,59.878377,Банки
5348552838577421,СберБанк,"Стачек проспект, 90",30.260858,59.868324,"Банки,Обмен валюты,Ипотечные кредиты,Операции на фондовом рынке,Регистрация и ликвидация предприятий,Электронные подписи"
5348552838577419,СберБанк,"Стачек проспект, 73",30.259809,59.868019,"Банки,Обмен валюты,Ипотечные кредиты,Операции на фондовом рынке,Регистрация и ликвидация предприятий,Электронные подписи"
70000001047266317,Совкомбанк,"Стачек проспект, 88",30.26067,59.869136,Банки
70000001103017317,Банк ВТБ,"Стачек проспект, 69",30.259436,59.869319,Банки
70000001028800539,Почта Банк,"Стачек проспект, 69",30.259436,59.869319,Банки
70000001029419279,Совкомбанк,"проспект Ветеранов, 105",30.201712,59.833504,"Банки,Обмен валюты"
5348552838577102,СберБанк,"проспект Ветеранов, 114 к1",30.196496,59.832608,"Банки,Обмен валюты,Ипотечные кредиты,Операции на фондовом рынке,Регистрация и ликвидация предприятий,Электронные подписи,ПИФы,Инвестиционные драгоценные металлы,Факторинг"
5348552838577389,СберБанк,"проспект Ветеранов, 95",30.207483,59.833606,"Банки,Обмен валюты,Ипотечные кредиты,Операции на фондовом рынке,Регистрация и ликвидация предприятий,Электронные подписи"
70000001026703208,Почта Банк,"проспект Ветеранов, 95",30.207257,59.833602,Банки
70000001021576890,Альфа-банк,"Дачный проспект, 17 к3",30.249851,59.843922,"Банки,Регистрация и ликвидация предприятий"
70000001090073707,Банк ВТБ,"проспект Ветеранов, 36 к2",30.247349,59.843128,Банки
5348552838535378,Банк Уралсиб,"проспект Ветеранов, 76",30.220754,59.833943,"Банки,Обмен валюты,Ипотечные кредиты"
5348552838577387,СберБанк,"проспект Ветеранов, 43",30.241862,59.842124,"Банки,Обмен валюты,Ипотечные кредиты,Операции на фондовом рынке,Регистрация и ликвидация предприятий,Электронные подписи"
5348552839791471,Банк ВТБ,"проспект Маршала Жукова, 36 к1",30.224392,59.853149,Банки
70000001104969535,Банк ВТБ,"проспект Ветеранов, 95",30.208006,59.833657,Банки
5348552838577388,СберБанк,"проспект Ветеранов, 78",30.217436,59.833179,"Банки,Обмен валюты,Ипотечные кредиты,Операции на фондовом рынке,Регистрация и ликвидация предприятий,Электронные подписи"
70000001104968516,Банк ВТБ,"проспект Ветеранов, 78",30.215399,59.832985,Банки
5348553838587683,Совкомбанк,"проспект Ветеранов, 52 к1",30.240758,59.840461,"Банки,Ипотечные кредиты"
70000001104964018,Банк ВТБ,"проспект Ветеранов, 43",30.241777,59.842095,Банки
70000001104967624,Банк ВТБ,"Ленинский проспект, 115",30.247432,59.851257,Банки
5348552838493558,Абсолют банк,"Ленинский проспект, 109",30.240694,59.851452,"Банки,Обмен валюты,Ипотечные кредиты,Регистрация и ликвидация предприятий"
70000001032569850,Почта Банк,"Ленинский проспект, 115",30.249098,59.851375,Банки
70000001028553228,Почта Банк,"проспект Ветеранов, 43",30.241286,59.841898,Банки
5348552841212720,Банк ВТБ,"Дачный проспект, 17 к3",30.248978,59.843862,Банки
70000001040465201,"Кетовский коммерческий банк, центр обмена валют","бульвар Новаторов, 75",30.251054,59.842443,Обмен валюты
5348552838577399,СберБанк,"Ленинский проспект, 129",30.269928,59.851431,"Банки,Обмен валюты,Ипотечные кредиты,Операции на фондовом рынке,Регистрация и ликвидация предприятий,Электронные подписи,ПИФы,Инвестиционные драгоценные металлы"
5348553838861851,Альфа-банк,"Ленинский проспект, 130",30.27168,59.852253,"Банки,Регистрация и ликвидация предприятий"
70000001007119183,Банк ВТБ,"Ленинский проспект, 124",30.262497,59.852301,Банки
70000001034686268,"Россельхозбанк, банк","Ленинский проспект, 125",30.262482,59.851534,"Банки,Обмен валюты,Ипотечные кредиты"
5348552841285827,Банк ПСБ,"бульвар Новаторов, 8",30.269206,59.850439,"Банки,Обмен валюты"
70000001096842523,Камкомбанк,"Ленинский проспект, 137 лит Б",30.278481,59.851428,"Банки,Ипотечные кредиты,Обмен валюты"
70000001099723441,Райффайзенбанк,"Ленинский проспект, 128",30.266258,59.852292,Банки
70000001006654404,"Совкомбанк, кредитно-кассовый офис №2","Ленинский проспект, 128",30.264414,59.852296,"Банки,Обмен валюты"
70000001020675911,"Банк Санкт-Петербург, дополнительный офис Дачное","Дачный проспект, 19 к1",30.256568,59.840453,"Банки,Обмен валюты,Ипотечные кредиты"
70000001017275552,СберБанк,"бульвар Новаторов, 98",30.253941,59.841119,"Банки,Обмен валюты,Ипотечные кредиты,Операции на фондовом рынке,Регистрация и ликвидация предприятий,Электронные подписи"
70000001043613271,Газпромбанк,"Ленинский проспект, 124",30.261243,59.852304,Банки
5348553838664662,МТС Банк,"бульвар Новаторов, 8",30.269295,59.85104,"Банки,Обмен валюты,Ипотечные кредиты,Электронные подписи"
5348552838577398,СберБанк,"Ленинский проспект, 117 к1",30.255523,59.851155,"Банки,Обмен валюты,Ипотечные кредиты,Регистрация и ликвидация предприятий,Электронные подписи,Инвестиционные драгоценные металлы,Операции на фондовом рынке"
70000001017482089,"Банк Санкт-Петербург, Дополнительный офис На Ленинском","Ленинский проспект, 125",30.263173,59.851488,"Банки,Обмен валюты"
5348552838493814,Банк Русский Стандарт,"Ленинский проспект, 138/5 лит А",30.279098,59.852287,"Банки,Обмен валюты"
70000001033357402,Московский кредитный банк,"бульвар Новаторов, 8",30.269204,59.850182,Банки
70000001018030985,Банк ВТБ,"Ленинский проспект, 130/6",30.269932,59.852257,"Банки,Обмен валюты"
70000001104966535,Банк ВТБ,"Ленинский проспект, 135 лит А",30.275247,59.851401,Банки
70000001064782295,Почта Банк,"Ленинский проспект, 130/6",30.271609,59.852253,Банки
70000001023684984,Почта Банк,"Ленинский проспект, 135 лит А",30.274888,59.851505,Банки
70000001106510593,Банк ВТБ,"Дачный проспект, 33 к1",30.263842,59.836683,Банки
