id,name,address_name,lon,lat,rubrics
70000001105263193,"Невис, аптека","Канонерский остров, 22/1",30.220219,59.903347,Аптеки
70000001007291956,"Невис, аптека","Двинская улица, 11",30.246583,59.909347,"Аптеки,Оптика,Доставка лекарств,Медицинские приборы,БАДы"
70000001104889435,"Столички, социальная аптека","Двинская улица, 6",30.252785,59.908945,Аптеки
70000001059396384,"Апрель, аптека","Стачек проспект, 15",30.274845,59.894269,"Аптеки,Медицинские приборы,Средства гигиены,Доставка лекарств"
70000001032721675,"Вита Экспресс, аптека","Стачек проспект, 4/1",30.275552,59.899066,"Аптеки,Средства гигиены,БАДы,Медицинские приборы,Доставка лекарств"
70000001033088949,"Невис, аптека","улица Трефолева, 15",30.270639,59.890932,"Аптеки,Доставка лекарств,БАДы,Медицинские приборы"
70000001041144645,"Леноблфарм, аптека","Стачек проспект, 1",30.274539,59.898812,"Аптеки,Оптика"
70000001086989677,"Здравсити, аптека","улица Трефолева, 22/25",30.269957,59.890652,"Аптеки,Доставка лекарств"
70000001039799261,"Ригла, аптека","площадь Стачек, 9",30.272732,59.899735,"Аптеки,Медицинские приборы,Доставка лекарств,БАДы,Средства гигиены"
5348552838486132,"Невис, аптека","Стачек проспект, 15",30.274934,59.894627,"Аптеки,Доставка лекарств"
70000001069303795,"Столички, социальная аптека","Стачек проспект, 41",30.26801,59.887158,"Аптеки,БАДы"
70000001092459514,"Столички, социальная аптека","Стачек проспект, 6",30.275951,59.898846,"Аптеки,БАДы,Медицинские расходные материалы"
70000001100883714,"Столички, социальная аптека","Стачек проспект, 22",30.272675,59.890835,Аптеки
70000001096081722,"Здравсити, аптека","Балтийская улица, 2",30.278168,59.897298,"Аптеки,БАДы,Медицинские приборы,Доставка лекарств,Медицинские расходные материалы"
70000001039073390,"Горздрав, аптека","Стачек проспект, 22",30.27257,59.89073,"Аптеки,Доставка лекарств"
70000001030540073,"Озерки, аптека","Стачек проспект, 1",30.274851,59.898433,"Аптеки,БАДы,Средства гигиены,Медицинские приборы"
70000001061099896,"Планета, аптечный пункт","Двинская улица, 3",30.256295,59.90925,Аптеки
70000001056994873,"Алоэ, аптека","Урхов переулок, 7 лит А",30.281651,59.893017,"Аптеки,Доставка лекарств"
70000001087332845,"ID, аптека","Ивана Черных, 25",30.28312,59.901861,Аптеки
70000001104541226,"Леноблфарм, аптека","Промышленная улица, 21 ст1",30.257811,59.896639,"Аптеки,Доставка лекарств"
5348552839944746,"Здравсити, аптека","улица Трефолева, 22",30.270011,59.890689,"Аптеки,Средства гигиены,Медицинские приборы"
70000001044855148,"Вита Экспресс, аптека","Стачек проспект, 99",30.248654,59.858942,"Аптеки,Доставка лекарств,Фитопродукция,Медицинские приборы,БАДы"
70000001051610886,"Столички, социальная аптека","улица Маршала Казакова, 1 к1 лит Д",30.247171,59.860189,"Аптеки,Доставка лекарств"
70000001089889593,"Озерки, аптека","проспект Маршала Жукова, 30 к1",30.231284,59.857036,"Аптеки,Медицинские приборы,Средства гигиены,БАДы,Медицинские расходные материалы"
70000001043412607,"Алоэ, аптека","Стачек проспект, 105",30.241037,59.855178,"Аптеки,Доставка лекарств"
70000001084007281,Аптека плюс,"Стачек проспект, 101 к1",30.246716,59.859116,Аптеки
70000001094725323,"Здравсити, аптека","улица Маршала Казакова, 1 к1 лит В",30.248194,59.860499,"Аптеки,Доставка лекарств,БАДы,Медицинские расходные материалы,Медицинские приборы"
70000001050919505,"Леноблфарм, аптека","проспект Маршала Жукова, 30 к4",30.229282,59.856323,"Аптеки,Доставка лекарств,Оптика"
70000001040615245,"Вита Экспресс, аптека","улица Маршала Казакова, 1 к1",30.24822,59.859943,"Аптеки,Доставка лекарств"
5348552839944740,"Здравсити, аптека","улица Маршала Казакова, 1 к1",30.248853,59.859906,"Аптеки,Доставка лекарств,Медицинские приборы"
70000001059450833,"Еаптека, аптечный пункт","улица Маршала Говорова, 12 к1",30.26638,59.878836,"Аптеки,БАДы,Доставка лекарств,Ортопедические товары,Медицинские приборы"
70000001104394162,"Ваша №1, аптека","Стачек проспект, 94",30.261341,59.866755,"Аптеки,Фитопродукция"
70000001057536931,"Апрель, аптека","Стачек проспект, 75",30.25957,59.867283,Аптеки
70000001007474740,"Петербургские аптеки, аптека №88","Стачек проспект, 88",30.260504,59.868913,"Аптеки,Фитопродукция,Средства гигиены,БАДы,Медицинские приборы"
70000001100890752,"Здоров.ру, аптека","Стачек проспект, 88",30.260542,59.868773,"Аптеки,Доставка лекарств"
5348552838480870,"Озерки, аптека","Стачек проспект, 75",30.259669,59.866936,"Аптеки,Доставка лекарств"
70000001029720601,"Омнифарм, аптека","улица Васи Алексеева, 26",30.275616,59.877081,"Аптеки,Доставка лекарств,Медицинские расходные материалы"
70000001068422227,"Озерки, аптека","улица Маршала Говорова, 11/3",30.267534,59.878537,"Аптеки,Средства гигиены,Медицинские приборы,БАДы"
70000001057303013,"Столички, социальная аптека","Стачек проспект, 75",30.25953,59.867727,Аптеки
70000001025832781,"Горздрав, аптека","Стачек проспект, 90",30.260956,59.867996,"Аптеки,Доставка лекарств,БАДы,Медицинские приборы,Средства гигиены"
70000001063527209,"Апрель, аптека","улица Васи Алексеева, 13",30.270927,59.877628,"Аптеки,Фитопродукция,Средства гигиены,Доставка лекарств,Детское питание"
70000001040109770,Магнит Аптека,"Краснопутиловская улица, 12",30.264887,59.873056,"Аптеки,Фитопродукция,БАДы"
5348552839992116,"Невис, аптека","Автовская улица, 15",30.26838,59.86753,"Аптеки,Медицинские приборы,Доставка лекарств"
70000001056598517,"Столички, социальная аптека","улица Маршала Говорова, 14",30.267436,59.879732,"Аптеки,Ортопедические товары,БАДы,Медицинские приборы"
70000001066097158,"Апрель, аптека","Краснопутиловская улица, 14",30.266072,59.872396,"Аптеки,Средства гигиены,Фитопродукция,Доставка лекарств,Детское питание"
70000001034000775,"Озерки, аптека","Стачек проспект, 67 к3",30.259182,59.870667,"Аптеки,Средства гигиены,БАДы,Медицинские приборы"
70000001062341120,"Вита Экспресс, аптека","улица Васи Алексеева, 10",30.267873,59.879073,"Аптеки,Доставка лекарств,Фитопродукция,БАДы"
70000001069876090,"Вита Экспресс, аптека","Стачек проспект, 96",30.26148,59.866299,"Аптеки,Доставка лекарств,Средства гигиены,Медицинские приборы,БАДы"
5348552840886941,"Алоэ, аптека","Стачек проспект, 92 к1",30.263549,59.866709,"Аптеки,Доставка лекарств"
70000001069298068,Аптека плюс,"Стачек проспект, 75",30.259859,59.867848,Аптеки
5348552838480869,"Озерки, аптека","Кронштадтская улица, 22",30.257626,59.868408,"Аптеки,Доставка лекарств"
70000001081106607,"Здравсити, аптека","Стачек проспект, 73",30.259694,59.86842,"Аптеки,Доставка лекарств"
70000001060453145,"Горздрав, аптека","улица Васи Алексеева, 4 ст1",30.264749,59.880393,Аптеки
70000001027037679,"Озерки, аптека","Стачек проспект, 47 лит Е",30.260667,59.880555,"Аптеки,Средства гигиены,Медицинские приборы,БАДы"
70000001089491918,"Апрель, аптека","Краснопутиловская улица, 34",30.274084,59.86851,Аптеки
70000001094564874,"Здравсити, аптека","Стачек проспект, 96",30.261618,59.865835,"Аптеки,БАДы,Медицинские расходные материалы,Доставка лекарств,Медицинские приборы"
70000001093446127,"Столички, социальная аптека","Автовская улица, 20",30.271503,59.870291,"Аптеки,БАДы,Медицинские приборы,Средства гигиены"
70000001024118361,"Невис, аптека","улица Зины Портновой, 1/3",30.255933,59.856744,"Аптеки,Доставка лекарств"
70000001102960223,"Здравсити, аптека","улица Маршала Говорова, 14",30.267467,59.879918,Аптеки
70000001081685999,"Алоэ, аптека","Краснопутиловская улица, 55",30.274838,59.867484,Аптеки
5348552838503968,"Петербургские аптеки, аптека №175","улица Генерала Симоняка, 9",30.202686,59.830092,"Аптеки,Средства гигиены,Медицинские приборы"
70000001036871248,"Планета здоровья, аптека готовых лекарственных форм","проспект Маршала Жукова, 54 к1",30.207336,59.841312,"Аптеки,БАДы,Фитопродукция,Средства гигиены,Доставка лекарств"
70000001077154087,"Алоэ, аптека","проспект Ветеранов, 114 к4",30.195283,59.832436,"Аптеки,Доставка лекарств"
5348552838484778,"Фиалка, аптека","проспект Ветеранов, 109",30.1992,59.83346,"Аптеки,Доставка лекарств,Медицинские приборы,БАДы,Средства гигиены"
70000001035593723,"Озерки, аптека","проспект Ветеранов, 108",30.205264,59.832816,"Аптеки,Средства гигиены,БАДы,Медицинские приборы,Медицинские расходные материалы"
70000001084484079,Аптека плюс,"проспект Ветеранов, 110",30.202342,59.832764,Аптеки
70000001068864532,"Невис, аптека","проспект Маршала Жукова, 60в",30.205264,59.838736,"Аптеки,Оптика,Доставка лекарств,БАДы,Средства гигиены"
70000001031744946,"Вита Экспресс, аптека","проспект Ветеранов, 109",30.198151,59.833441,"Аптеки,Средства гигиены,Фитопродукция,Медицинские приборы,Доставка лекарств"
70000001106118335,"Столички, социальная аптека","проспект Ветеранов, 108 к1",30.204822,59.83227,Аптеки
70000001087546678,"Озерки, аптека","проспект Ветеранов, 101",30.204558,59.833974,"Аптеки,БАДы,Медицинские приборы,Средства гигиены,Медицинские расходные материалы"
70000001094725316,"Здравсити, аптека","улица Генерала Симоняка, 14",30.205098,59.827065,"Аптеки,Доставка лекарств,Медицинские расходные материалы,Медицинские приборы,БАДы"
70000001046427853,"Столички, социальная аптека","проспект Ветеранов, 105",30.201001,59.833491,"Аптеки,Медицинские приборы,БАДы,Ортопедические товары,Средства гигиены"
70000001093773128,Аптека плюс,"проспект Маршала Жукова, 76 к1",30.190233,59.827852,Аптеки
5348552838503972,"Петербургские аптеки, аптека №242","Ленинский проспект, 118",30.253343,59.852322,"Аптеки,Изготовление лекарств на заказ"
70000001054623757,"Сити-фарм, аптека","проспект Ветеранов, 69",30.231469,59.838099,"Аптеки,Медицинские приборы,БАДы"
70000001017816206,"Планета здоровья, аптека готовых лекарственных форм","бульвар Новаторов, 112",30.249488,59.841665,"Аптеки,Доставка лекарств"
70000001082655701,"Здоров.ру, аптека","проспект Ветеранов, 36 к2",30.247755,59.842831,"Аптеки,Доставка лекарств"
70000001054940493,"Апрель, аптека","проспект Ветеранов, 95",30.208323,59.833621,"Аптеки,Детское питание,Медицинские приборы,Средства гигиены,Доставка лекарств"
5348552840722057,"Петербургские аптеки, аптека №206","проспект Ветеранов, 78",30.213293,59.832957,"Аптеки,Изготовление лекарств на заказ,Медицинские приборы,Средства гигиены,БАДы"
5348552838483740,"Озерки, аптека","проспект Ветеранов, 53",30.238166,59.840554,"Аптеки,Медицинские приборы,БАДы,Средства гигиены"
5348552838480868,"Озерки, аптека","Дачный проспект, 17 к4",30.252141,59.842725,"Аптеки,Средства гигиены,БАДы,Медицинские приборы"
70000001047021108,"Алоэ, аптека","бульвар Новаторов, 98а",30.253379,59.841344,"Аптеки,Доставка лекарств"
70000001037702695,"Столички, социальная аптека","проспект Ветеранов, 23",30.244279,59.84291,Аптеки
5348552838484783,"Фиалка, аптека","Ленинский проспект, 104",30.228229,59.85245,"Аптеки,Медицинские приборы,Доставка лекарств,Средства гигиены,БАДы"
70000001103402175,"Озерки, аптека","проспект Ветеранов, 87",30.219422,59.834381,Аптеки
70000001059070436,Аптекаплюс,"улица Лёни Голикова, 53",30.237125,59.8405,Аптеки
5348552840722056,"Петербургские аптеки, Аптека №147","проспект Ветеранов, 43",30.242495,59.842373,"Аптеки,Медицинские приборы,Средства гигиены"
70000001032722123,"Вита Экспресс, аптека","улица Лёни Голикова, 53",30.236937,59.840632,"Аптеки,БАДы,Доставка лекарств"
70000001060622899,"Столички, социальная аптека","Ленинский проспект, 108 к1",30.232623,59.852506,"Аптеки,Средства гигиены,БАДы,Медицинские приборы"
70000001087521603,"Озерки, аптека","Ленинский проспект, 111 к2",30.244161,59.850611,"Аптеки,Доставка лекарств"
70000001051173301,"Столички, социальная аптека","проспект Ветеранов, 76",30.219691,59.833673,Аптеки
70000001041484939,Магнит Аптека,"Ленинский проспект, 118 к1",30.249925,59.852411,"Аптеки,БАДы"
70000001099937031,"Озерки, аптека","бульвар Новаторов, 108",30.250377,59.841526,"Аптеки,Доставка лекарств"
70000001030425341,"Озерки, аптека","проспект Ветеранов, 78",30.215289,59.832976,"Аптеки,Средства гигиены,БАДы,Медицинские приборы"
70000001079704262,"Озерки, аптека","Ленинский проспект, 118",30.251721,59.852325,"Аптеки,БАДы,Средства гигиены,Медицинские приборы"
70000001100166781,"Горздрав, аптека","проспект Ветеранов, 78",30.217757,59.833191,Аптеки
70000001032721689,"Вита Экспресс, аптека","проспект Ветеранов, 50",30.24191,59.840905,"Аптеки,БАДы,Средства гигиены,Медицинские приборы,Доставка лекарств"
70000001077154091,"Алоэ, аптека","Народного Ополчения проспект, 149 ст1",30.246752,59.830952,"Аптеки,Доставка лекарств"
70000001040950466,Магнит Аптека,"Дачный проспект, 5 к10",30.242525,59.848175,Аптеки
70000001082702709,"Озерки, аптека","улица Лёни Голикова, 27 к3",30.229048,59.843581,Аптеки
70000001101574225,"Алоэ, аптека","Ленинский проспект, 103",30.230368,59.851103,"Аптеки,Доставка лекарств"
70000001029449581,"Леноблфарм, аптека","улица Солдата Корзуна, 40",30.220671,59.830897,"Аптеки,Доставка лекарств"
70000001089128938,Магнит Аптека,"Ленинский проспект, 106 к3",30.230405,59.852379,"Аптеки,Медицинские приборы"
70000001076562460,"Невис, аптека","бульвар Новаторов, 73",30.252203,59.842255,"Аптеки,Доставка лекарств"
70000001082679893,"Столички, социальная аптека","проспект Ветеранов, 73",30.230611,59.837846,"Аптеки,БАДы,Медицинские приборы"
70000001057537311,"Нушфарм, аптека","Ленинский проспект, 114",30.245668,59.852489,Аптеки
70000001029815464,"Невис, аптека","улица Лёни Голикова, 25 к2",30.231524,59.844289,"Аптеки,Оптика,Доставка лекарств,Средства гигиены"
70000001078947910,"Интермедфарм, аптека","проспект Ветеранов, 89 к4",30.214083,59.837619,"Аптеки,Средства гигиены"
70000001100166854,"Горздрав, аптека","улица Лёни Голикова, 53",30.237265,59.840238,Аптеки
70000001059408127,"Невис, аптека","проспект Ветеранов, 87",30.221669,59.835085,"Аптеки,Оптика,Средства гигиены,Доставка лекарств"
70000001076201055,"Фармадом, аптека","проспект Ветеранов, 56",30.237943,59.838005,Аптеки
70000001023562659,"Леноблфарм, аптека","улица Бурцева, 23 лит А",30.214003,59.83567,"Аптеки,Средства гигиены"
70000001034178141,Аптека №145,"проспект Ветеранов, 89",30.21466,59.834203,"Аптеки,Средства гигиены,Доставка лекарств"
70000001043120679,"Лека-фарм, аптека","Стойкости, 8 лит В",30.215524,59.827691,Аптеки
70000001083695650,"Здравсити, аптека","Дачный проспект, 12",30.251082,59.844761,"Аптеки,Доставка лекарств,БАДы,Медицинские расходные материалы,Медицинские приборы"
70000001102841546,"Бюджетная, аптека","улица Солдата Корзуна, 34",30.219124,59.832813,"Аптеки,БАДы,Средства гигиены"
70000001047164294,"Планета здоровья, аптека готовых лекарственных форм","Ленинский проспект, 119",30.257384,59.851472,"Аптеки,Детское питание,БАДы,Фитопродукция,Средства гигиены"
5348552838503971,"Петербургские аптеки, аптека №214","Ленинский проспект, 131",30.273053,59.851385,"Аптеки,Изготовление лекарств на заказ,Средства гигиены,Медицинские приборы"
70000001053108566,"Планета здоровья, аптека готовых лекарственных форм","бульвар Новаторов, 13",30.267263,59.849734,"Аптеки,БАДы,Медицинские приборы,Доставка лекарств"
5348552838480867,"Озерки, аптека","бульвар Новаторов, 8",30.269205,59.850314,"Аптеки,Средства гигиены,БАДы,Медицинские приборы"
70000001099376163,"Живика, аптека","Ленинский проспект, 118",30.255306,59.852319,Аптеки
70000001058841367,"Столички, социальная аптека","Ленинский проспект, 128",30.265856,59.852293,"Аптеки,Ортопедические товары"
70000001034612194,"Горздрав, аптека","бульвар Новаторов, 8",30.269206,59.850366,"Аптеки,Медицинские приборы,Оптика,Средства гигиены"
70000001087416307,"Озерки, аптека","Дачный проспект, 19 к1",30.255794,59.840854,"Аптеки,Доставка лекарств"
70000001036936513,"Горздрав, аптечный пункт №142","Ленинский проспект, 123а",30.262053,59.851535,"Аптеки,БАДы,Медицинские приборы,Средства гигиены,Доставка лекарств"
70000001089760324,"Озерки, аптека","Ленинский проспект, 118",30.254801,59.85232,"Аптеки,БАДы,Медицинские приборы,Средства гигиены"
70000001103027542,"Здоров.ру, аптека","бульвар Новаторов, 9",30.26714,59.852627,Аптеки
70000001063258223,"Апрель, аптека","Дачный проспект, 33 к1",30.262637,59.837308,"Аптеки,Доставка лекарств,Медицинские приборы,Фитопродукция,Товары для новорождённых"
70000001105091505,"Столички, социальная аптека","бульвар Новаторов, 67 к2",30.26006,59.842972,Аптеки
70000001032658173,"Невис, аптека","Народного Ополчения проспект, 10",30.281203,59.85081,"Аптеки,Оптика,Доставка лекарств"
70000001060616128,"Горздрав, аптека","Ленинский проспект, 117 лит А",30.254009,59.851445,"Аптеки,Доставка лекарств"
70000001026551273,"Будь Здоров!, аптека","улица Зины Портновой, 32",30.256845,59.852314,"Аптеки,Доставка лекарств,Медицинские приборы,БАДы,Средства гигиены"
70000001046693584,"Горздрав, аптека","Ленинский проспект, 130",30.269932,59.852257,"Аптеки,Средства гигиены,Медицинские приборы,БАДы"
70000001066673462,"36, 6, аптека","бульвар Новаторов, 11 к2 лит А",30.268443,59.849716,"Аптеки,Доставка лекарств"
70000001035300973,"Столички, социальная аптека","бульвар Новаторов, 11а",30.267381,59.850798,"Аптеки,Медицинские приборы,Ортопедические товары,Средства гигиены"
70000001094564876,"Здравсити, аптека","Дачный проспект, 19 к1",30.256279,59.840603,"Аптеки,БАДы,Медицинские расходные материалы,Доставка лекарств,Медицинские приборы"
70000001091747699,"Здравсити, аптека","Ленинский проспект, 128 к2",30.268527,59.852576,"Аптеки,Доставка лекарств,Медицинские расходные материалы"
70000001103054594,"Максавит, аптека","Ленинский проспект, 129 к6",30.271577,59.851467,Аптеки
70000001044871991,"Вита Экспресс, аптека","бульвар Новаторов, 6",30.269466,59.852306,"Аптеки,Медицинские приборы,Фитопродукция,БАДы,Доставка лекарств"
5348552838486133,"Невис, аптека","Народного Ополчения проспект, 115",30.26949,59.837986,"Аптеки,Оптика,Доставка лекарств"
5348552839992117,"Невис, аптека","Счастливая улица, 13",30.273631,59.844012,"Аптеки,Оптика,Доставка лекарств"
70000001097250180,"Здравсити, аптека","улица Зины Портновой, 32",30.256673,59.852566,"Аптеки,БАДы,Медицинские расходные материалы,Медицинские приборы,Доставка лекарств"
70000001103428649,"Фармсервис, аптека","Ленинский проспект, 130",30.270586,59.852256,Аптеки
70000001109697457,"Здравсити, аптека","Народного Ополчения проспект, 101",30.270899,59.838864,Аптеки
