id,name,address_name,lon,lat,rubrics
70000001057218095,"Светофор, магазин низких цен","Двинская улица, 14а лит А",30.24455,59.908412,Супермаркеты
70000001047676040,"Магнит, супермаркет","Канонерский остров, 8а",30.213416,59.898643,"Супермаркеты,Доставка продуктов"
70000001031008732,"Семишагофф, супермаркет","Двинская улица, 11",30.245903,59.909353,Супермаркеты
70000001042660685,"Реалъ, универсам","Канонерский остров, 22/1",30.220219,59.903347,Супермаркеты
70000001027542604,"Пятёрочка, супермаркет","Шотландская улица, 3",30.243971,59.906701,"Супермаркеты,Доставка продуктов"
70000001104867813,"Дикси, супермаркет","Двинская улица, 8 к3 ст1",30.249907,59.907092,"Супермаркеты,Доставка продуктов"
5348552838575375,"Перекрёсток, супермаркет","площадь Стачек, 7",30.271688,59.900614,"Супермаркеты,Доставка продуктов"
70000001058977097,"Супер Лента, супермаркет","площадь Стачек, 9",30.272027,59.899919,Супермаркеты
70000001031118605,"Пятёрочка, супермаркет","Двинская улица, 3",30.255603,59.909231,"Супермаркеты,Доставка продуктов"
70000001034060053,"Семишагофф, супермаркет","Балтийская улица, 2/14",30.277605,59.897174,Супермаркеты
5348552840018044,"Пятёрочка, супермаркет","Стачек проспект, 1",30.274539,59.898812,"Супермаркеты,Доставка продуктов"
70000001031547441,"Пятёрочка, супермаркет","улица Зои Космодемьянской, 26",30.263299,59.892217,"Супермаркеты,Доставка продуктов"
70000001058978123,"Гипер Лента, гипермаркет","Урхов переулок, 7 лит А",30.281205,59.892974,"Гипермаркеты,Доставка продуктов"
70000001025962901,"Дикси, супермаркет","улица Трефолева, 15",30.270639,59.890932,"Супермаркеты,Доставка продуктов"
70000001028542533,"Магнит, супермаркет","Стачек проспект, 38",30.270075,59.887798,"Супермаркеты,Доставка продуктов"
70000001090525829,"ВкусВилл, магазин с доставкой полезных продуктов","Стачек проспект, 4",30.275433,59.899407,"Супермаркеты,Кулинарии,Доставка продуктов,Доставка еды"
70000001029303252,"Пятёрочка, супермаркет","Промышленная улица, 21 ст1",30.257811,59.896639,"Супермаркеты,Доставка продуктов"
70000001043583968,"Магнит, супермаркет","улица Трефолева, 22",30.270773,59.89043,"Супермаркеты,Доставка продуктов"
70000001101843189,"Дикси, супермаркет","Балтийская улица, 19",30.282434,59.898218,Супермаркеты
70000001061851973,"Магнит, супермаркет","Стачек проспект, 1",30.274918,59.898352,"Супермаркеты,Доставка продуктов"
70000001032298319,"Дикси, супермаркет","улица Трефолева, 10",30.274567,59.889472,"Супермаркеты,Доставка продуктов"
5348552841367906,"В7, минимаркет","улица Маршала Говорова, 35",30.27817,59.889051,Супермаркеты
70000001025642705,Мини-маркет,"Стачек проспект, 15",30.274954,59.894705,Супермаркеты
70000001109542886,"Продукты около, магазин","Ивана Черных, 3а",30.27659,59.899751,Супермаркеты
5348552841477429,"Удобный, мини-маркет","улица Швецова, 10",30.281401,59.897275,Супермаркеты
70000001025788003,Супермаркет,"Балтийская улица, 36",30.286966,59.899594,Супермаркеты
70000001029503333,Мини-маркет,"улица Маршала Говорова, 35 к5",30.280552,59.888409,Супермаркеты
70000001036423120,Мини-маркет,"улица Швецова, 41 к1",30.289625,59.897311,Супермаркеты
5348552838480984,"Сезон, универсам","проспект Маршала Жукова, 30 к1",30.230722,59.857199,Супермаркеты
5348553838625475,"Семишагофф, супермаркет","Стачек проспект, 105 к1",30.240969,59.855514,Супермаркеты
5348552838575275,"Перекрёсток, супермаркет","Стачек проспект, 99",30.249273,59.858932,"Супермаркеты,Доставка продуктов"
5348553838546896,"Пловдив, супермаркет","улица Маршала Казакова, 1 к1",30.248853,59.859906,Супермаркеты
5348552838657737,"Пятёрочка, супермаркет","Стачек проспект, 105",30.241037,59.855178,"Супермаркеты,Доставка продуктов"
70000001076298981,"Пятёрочка, супермаркет","улица Маршала Казакова, 7",30.240751,59.859961,"Супермаркеты,Доставка продуктов"
70000001019884663,"Дикси, супермаркет","Стачек проспект, 101 к1",30.246377,59.859179,"Супермаркеты,Доставка продуктов"
70000001017876328,"Магнит, супермаркет","Стачек проспект, 105 к2",30.240884,59.856266,"Супермаркеты,Доставка продуктов"
5348552838690878,"Дикси, супермаркет","улица Маршала Казакова, 13",30.236738,59.860031,"Супермаркеты,Доставка продуктов"
70000001104448774,"Пятёрочка, супермаркет","улица Маршала Казакова, 1 к1 лит Б",30.249295,59.860363,Супермаркеты
70000001017610412,Мини-маркет,"проспект Маршала Жукова, 34 к1 лит Е",30.226877,59.854672,Супермаркеты
70000001023491842,Минимаркет,"проспект Маршала Жукова, 26",30.233397,59.859199,Супермаркеты
70000001028528232,"Маяк, продуктовый магазин","Стачек проспект, 146",30.249268,59.8547,Супермаркеты
70000001093801459,"Фасоль, супермаркет","Стачек проспект, 47 лит Ф",30.248126,59.883032,Супермаркеты
70000001058977311,"Супер Лента, супермаркет","Автовская улица, 15 к1",30.268269,59.867536,"Супермаркеты,Доставка продуктов"
70000001095579001,"Семишагофф, супермаркет","улица Маршала Говорова, 14",30.266741,59.879307,Супермаркеты
70000001057116010,"Перекрёсток, супермаркет","улица Васи Алексеева, 4 ст1",30.264892,59.880737,"Супермаркеты,Доставка продуктов"
5348552838657730,"Пятёрочка, супермаркет","Краснопутиловская улица, 55",30.274838,59.867484,"Супермаркеты,Доставка продуктов"
70000001019174913,"Дикси, супермаркет","Стачек проспект, 88",30.260581,59.86864,"Супермаркеты,Доставка продуктов"
70000001082039812,"Пятёрочка, супермаркет","Стачек проспект, 59",30.258008,59.874296,Супермаркеты
5348552838657733,"Пятёрочка, супермаркет","улица Маршала Говорова, 16",30.269134,59.881435,"Супермаркеты,Доставка продуктов"
5348553839054568,"Магнит, супермаркет","Стачек проспект, 75",30.259077,59.867813,"Супермаркеты,Доставка продуктов"
5348552840730284,"Дикси, супермаркет","улица Маршала Говорова, 10",30.266143,59.878515,"Супермаркеты,Доставка продуктов"
5348552840258524,"Пловдив, супермаркет","улица Васи Алексеева, 21",30.274367,59.876935,Супермаркеты
70000001090229438,"ВкусВилл, магазин с доставкой полезных продуктов","Стачек проспект, 67 к3",30.259195,59.870622,"Супермаркеты,Доставка продуктов,Доставка еды,Кулинарии"
70000001024677728,"Пятёрочка, супермаркет","Трамвайный проспект, 14",30.265276,59.855031,"Супермаркеты,Доставка продуктов"
70000001017406448,"Пятёрочка, супермаркет","Краснопутиловская улица, 30",30.272435,59.869325,"Супермаркеты,Доставка продуктов"
5348552838657729,"Пятёрочка, супермаркет","улица Зайцева, 23",30.271017,59.87586,"Супермаркеты,Доставка продуктов"
70000001025472190,"Магнит, супермаркет","улица Васи Алексеева, 21",30.274475,59.876914,"Супермаркеты,Доставка продуктов"
5348552841105715,"Магнит, супермаркет","улица Зины Портновой, 1/3",30.255933,59.856744,"Супермаркеты,Доставка продуктов"
5348552838738365,"Магнит, супермаркет","Стачек проспект, 67 к2",30.258816,59.871728,"Супермаркеты,Доставка продуктов"
70000001037540575,"Магнит, супермаркет","Краснопутиловская улица, 12",30.264887,59.873056,"Супермаркеты,Доставка продуктов"
70000001020014400,"Копейка, продуктовый магазин","Кронштадтская улица, 11 лит А",30.256121,59.868821,Супермаркеты
70000001086825656,"ВкусВилл, магазин с доставкой полезных продуктов","Маринеско, 9",30.267036,59.86803,"Супермаркеты,Доставка продуктов,Доставка еды,Кулинарии"
70000001021911125,"Дикси, супермаркет","Стачек проспект, 75",30.259623,59.867098,"Супермаркеты,Доставка продуктов"
70000001097596274,"Магнит, супермаркет","улица Васи Алексеева, 10",30.268346,59.878765,"Супермаркеты,Доставка продуктов"
70000001043463669,"Верный, универсам","улица Зины Портновой, 5",30.255887,59.856248,Супермаркеты
5348552838690781,"Дикси, супермаркет","улица Васи Алексеева, 20",30.271796,59.877889,"Супермаркеты,Доставка продуктов"
5348552839952505,"Технолог, магазин","Стачек проспект, 92 к2",30.262642,59.866616,Супермаркеты
70000001043450972,"Дикси, супермаркет","Автовская улица, 3",30.26589,59.866527,"Супермаркеты,Доставка продуктов"
70000001102863448,"Дикси, супермаркет","Стачек проспект, 55",30.257365,59.877149,"Супермаркеты,Доставка продуктов"
70000001021503993,"Дикси, супермаркет","Краснопутиловская улица, 20",30.267911,59.87149,"Супермаркеты,Доставка продуктов"
70000001059850652,"Apetit, мини-маркет","Стачек проспект, 48 к2",30.265683,59.88329,Супермаркеты
70000001021712362,"Дикси, супермаркет","Краснопутиловская улица, 8",30.261883,59.874407,"Супермаркеты,Доставка продуктов"
5348553838828622,"Минута маркет, минимаркет","улица Возрождения, 21",30.275022,59.880191,Супермаркеты
5348553838679022,"Дикси, супермаркет","Стачек проспект, 59",30.258329,59.873636,"Супермаркеты,Доставка продуктов"
70000001095102161,Мини-маркет,"Стачек проспект, 92 к3",30.262706,59.868227,Супермаркеты
5348552840342009,Продуктовый магазин,"улица Корнеева, 12",30.272582,59.88461,"Супермаркеты,Разливное пиво"
70000001019639930,Продуктовый магазин,"Краснопутиловская улица, 13",30.26564,59.872017,Супермаркеты
70000001032294319,Продуктовый магазин,"улица Маршала Говорова, 8",30.264241,59.8767,Супермаркеты
70000001064238263,"18 gramm, супермаркет","Краснопутиловская улица, 69",30.287282,59.860341,Супермаркеты
70000001044712030,"Перекрёсток, супермаркет","проспект Ветеранов, 101",30.204681,59.83425,"Супермаркеты,Доставка продуктов"
5348552840016473,"Пятёрочка, супермаркет","проспект Маршала Жукова, 60 к1",30.204095,59.838388,"Супермаркеты,Доставка продуктов"
70000001019531724,"Семишагофф, супермаркет","проспект Ветеранов, 109",30.199914,59.833473,"Супермаркеты,Доставка продуктов"
70000001018138371,"Бриз, супермаркет","проспект Маршала Жукова, 76 к1",30.190233,59.827852,Супермаркеты
5348553838614025,"Пловдив, супермаркет","улица Генерала Симоняка, 19 лит А",30.204083,59.82756,Супермаркеты
70000001078615524,"Пятёрочка, супермаркет","проспект Ветеранов, 110",30.202161,59.832761,Супермаркеты
70000001052566971,"Магнит, супермаркет","проспект Ветеранов, 109 к4",30.196767,59.833535,"Супермаркеты,Доставка продуктов"
5348552838658035,"Пятёрочка, супермаркет","проспект Ветеранов, 114 к4",30.195361,59.832437,"Супермаркеты,Доставка продуктов"
70000001038677025,"ВкусВилл, магазин с доставкой полезных продуктов","проспект Ветеранов, 105",30.201081,59.833493,"Супермаркеты,Доставка продуктов,Доставка еды,Кулинарии"
70000001068519796,"Магнит Моя Цена, супермаркет","Стойкости, 28 к1",30.199178,59.826758,"Супермаркеты,Доставка продуктов"
70000001026531972,"Технолог, магазин","проспект Ветеранов, 110",30.202706,59.83277,Супермаркеты
70000001057675465,"Винлаб, супермаркет напитков","проспект Ветеранов, 109 к4",30.197602,59.833401,"Супермаркеты,Алкогольные напитки"
70000001040595113,"Семишагофф, супермаркет","проспект Ветеранов, 16а",30.253568,59.845303,Супермаркеты
5348553838974118,"Перекрёсток, супермаркет","Дачный проспект, 9",30.244374,59.846833,"Супермаркеты,Доставка продуктов"
5348552838765394,"Пловдив, супермаркет","проспект Ветеранов, 87",30.221751,59.835075,Супермаркеты
70000001083535422,"Монетка, супермаркет","проспект Ветеранов, 55",30.236341,59.839907,Супермаркеты
70000001042600247,"Семишагофф, супермаркет","улица Лёни Голикова, 82",30.245664,59.836446,Супермаркеты
70000001081827649,"Магнит, супермаркет","Дачный проспект, 17 к2",30.249579,59.842981,"Супермаркеты,Доставка продуктов"
70000001025941171,"Семишагофф, супермаркет","улица Лёни Голикова, 27 к3",30.22852,59.843423,Супермаркеты
70000001034060309,"Семишагофф, супермаркет","Стойкости, 8",30.215886,59.827298,Супермаркеты
70000001079560017,"ВкусВилл, магазин с доставкой полезных продуктов","Ленинский проспект, 111 к1",30.243383,59.851055,"Супермаркеты,Доставка продуктов"
70000001046121913,"Магнит, супермаркет","проспект Ветеранов, 52 к1",30.239862,59.840147,"Супермаркеты,Доставка продуктов"
70000001038944766,"Магнит, супермаркет","Дачный проспект, 5 к10",30.242336,59.848149,"Супермаркеты,Доставка продуктов"
70000001042949364,"Пловдив, супермаркет","Стойкости, 8 лит В",30.215805,59.827624,Супермаркеты
70000001020988123,"Магнит, супермаркет","проспект Ветеранов, 43",30.242105,59.84222,"Супермаркеты,Доставка продуктов"
70000001017863036,"Пятёрочка, супермаркет","проспект Ветеранов, 53/56",30.238658,59.840751,"Супермаркеты,Доставка продуктов"
5348552838690769,"Дикси, супермаркет","проспект Ветеранов, 50 к2",30.243157,59.840805,"Супермаркеты,Доставка продуктов"
5348552838658034,"Пятёрочка, супермаркет","улица Бурцева, 23 лит А",30.214003,59.83567,"Супермаркеты,Доставка продуктов"
5348552840258522,"Пловдив, супермаркет","улица Танкиста Хрустицкого, 54",30.252397,59.838434,Супермаркеты
70000001020699858,"Волна, универсам","бульвар Новаторов, 102 к3 лит А",30.251967,59.8416,Супермаркеты
70000001019886605,"Дикси, супермаркет","улица Лёни Голикова, 2",30.229603,59.847599,"Супермаркеты,Доставка продуктов"
70000001043658897,"Верный, универсам","улица Солдата Корзуна, 40",30.220543,59.831077,Супермаркеты
70000001029060594,"Магнит, супермаркет","Стойкости, 8",30.217037,59.827783,"Супермаркеты,Доставка продуктов"
70000001091481431,"Дикси, супермаркет","Ленинский проспект, 118 к1",30.249925,59.852411,"Супермаркеты,Доставка продуктов"
5348552839975072,"Технолог, магазин","Дачный проспект, 15",30.248179,59.844837,Супермаркеты
70000001045615820,"Реалъ, универсам","улица Лёни Голикова, 27",30.23095,59.844093,Супермаркеты
70000001063054620,"Магнит, супермаркет","Ленинский проспект, 104",30.226895,59.852549,"Супермаркеты,Доставка продуктов"
70000001087656651,"Магнит, супермаркет","Ленинский проспект, 106 к3",30.230318,59.852379,"Супермаркеты,Доставка продуктов"
70000001057611927,"Винлаб, супермаркет напитков","проспект Маршала Жукова, 54 к1",30.209226,59.841648,"Супермаркеты,Алкогольные напитки"
70000001076211552,"Магнит, супермаркет","Ленинский проспект, 115",30.249784,59.851332,"Супермаркеты,Доставка продуктов"
70000001023568830,"Магнит, супермаркет","проспект Ветеранов, 87",30.218432,59.834146,"Супермаркеты,Доставка продуктов"
5348553838620125,"Магнит, супермаркет","Ленинский проспект, 114",30.246243,59.852331,"Супермаркеты,Доставка продуктов"
70000001033754279,"Верный, универсам","Ленинский проспект, 109",30.240368,59.850992,"Супермаркеты,Доставка продуктов"
70000001026632207,"Копейка, супермаркет","Ленинский проспект, 111 к1",30.243402,59.850981,Супермаркеты
70000001066554933,"Магнит, супермаркет","Народного Ополчения проспект, 149 ст1",30.247172,59.831053,"Супермаркеты,Доставка продуктов"
70000001034913336,"Технолог, магазин","улица Лёни Голикова, 56",30.237716,59.840848,Супермаркеты
70000001093813275,"Технолог, магазин","проспект Ветеранов, 91 к1",30.212549,59.83374,Супермаркеты
70000001059176442,"Фасоль, супермаркет","Стачек проспект, 216 к2",30.222443,59.846183,Супермаркеты
70000001026703437,"Дикси, супермаркет","проспект Маршала Жукова, 54 к1",30.208716,59.841921,"Супермаркеты,Доставка продуктов"
5348552839952141,"Бриз, супермаркет","улица Солдата Корзуна, 58 к1",30.223088,59.827603,Супермаркеты
70000001065133083,Мини-маркет,"проспект Ветеранов, 11",30.2456,59.844482,Супермаркеты
70000001104613502,Bravo маркет,"Стойкости, 19 к3",30.210465,59.829132,Супермаркеты
70000001023733485,"Аэмко, супермаркет","проспект Ветеранов, 21",30.24505,59.843469,Супермаркеты
70000001045747686,Продуктовый магазин,"улица Солдата Корзуна, 32",30.217429,59.8352,Супермаркеты
5348552841485390,Продуктовый магазин,"проспект Ветеранов, 53",30.238065,59.840624,Супермаркеты
70000001027045156,Продуктовый магазин,"проспект Маршала Жукова, 34 к1 лит Г",30.227165,59.853201,Супермаркеты
70000001066380710,"Светофор, магазин низких цен","Ленинский проспект, 144 к2",30.287165,59.852238,"Супермаркеты,Доставка продуктов"
70000001043072091,"Пловдив, супермаркет","Дачный проспект, 20/2",30.255909,59.841847,Супермаркеты
5348552838657731,"Пятёрочка, супермаркет","Ленинский проспект, 122",30.260101,59.852558,"Супермаркеты,Доставка продуктов"
70000001022659712,"Перекрёсток, супермаркет","Ленинский проспект, 137 лит Б",30.276625,59.851433,"Супермаркеты,Доставка продуктов"
70000001096989689,"Семишагофф, супермаркет","Ленинский проспект, 121 к5",30.261399,59.851491,Супермаркеты
70000001095869080,"Супер Лента, супермаркет","Ленинский проспект, 126",30.263575,59.852461,Супермаркеты
5348552838575379,"Перекрёсток, супермаркет","бульвар Новаторов, 11 к2 лит А",30.268304,59.849199,"Супермаркеты,Доставка продуктов"
70000001039775114,"Семишагофф, супермаркет","Народного Ополчения проспект, 115Б",30.270494,59.838468,Супермаркеты
70000001043227555,"Магнит, супермаркет","Ленинский проспект, 129 к6",30.271955,59.851466,"Супермаркеты,Доставка продуктов"
70000001025945913,"Щедрый, универсам","Ленинский проспект, 136",30.276306,59.852379,Супермаркеты
70000001020728206,"Пятёрочка, супермаркет","проспект Ветеранов, 16",30.253925,59.84562,"Супермаркеты,Доставка продуктов"
70000001054174840,"Пятёрочка, супермаркет","Ленинский проспект, 128 к2",30.268354,59.852753,"Супермаркеты,Доставка продуктов"
70000001075069642,"Магнит, супермаркет","бульвар Новаторов, 98",30.25397,59.841104,"Супермаркеты,Доставка продуктов"
70000001047319090,"ВкусВилл, магазин с доставкой полезных продуктов","бульвар Новаторов, 9",30.267139,59.852506,"Супермаркеты,Доставка продуктов,Доставка еды,Кулинарии"
5348552838657734,"Пятёрочка, супермаркет","Народного Ополчения проспект, 115",30.270001,59.83819,"Супермаркеты,Доставка продуктов"
70000001007020436,"Магнит, супермаркет","Дачный проспект, 18",30.254835,59.842404,"Супермаркеты,Доставка продуктов"
70000001040365536,"Магнит, супермаркет","Счастливая улица, 13",30.273956,59.843862,"Супермаркеты,Доставка продуктов"
5348552841230643,"Магнит, супермаркет","Ленинский проспект, 127 к1",30.264781,59.851471,"Супермаркеты,Доставка продуктов"
70000001089191955,"ВкусВилл, магазин с доставкой полезных продуктов","Дачный проспект, 24 к2",30.258422,59.840589,"Супермаркеты,Доставка еды,Доставка продуктов,Кулинарии"
70000001104591546,"Дикси, супермаркет","Народного Ополчения проспект, 10",30.281127,59.84916,"Супермаркеты,Продуктовые магазины"
70000001054838665,"Магнит, супермаркет","Дачный проспект, 27 к1",30.260905,59.838206,"Супермаркеты,Доставка продуктов"
70000001084059110,"ВкусВилл, магазин с доставкой полезных продуктов","Ленинский проспект, 138/5",30.279392,59.852287,"Супермаркеты,Доставка продуктов,Доставка еды,Кулинарии"
70000001037846551,"Пятёрочка, супермаркет","улица Зины Портновой, 36",30.256649,59.849701,"Супермаркеты,Доставка продуктов"
70000001034345673,"Пятёрочка, супермаркет","Ленинский проспект, 132",30.272951,59.852225,"Супермаркеты,Доставка продуктов"
70000001044499742,"Реалъ, универсам","улица Подводника Кузьмина, 44",30.263829,59.844583,Супермаркеты
5348553838700336,"Дикси, супермаркет","Дачный проспект, 33 к1",30.263465,59.836879,Супермаркеты
70000001036028041,"Магнит, супермаркет","бульвар Новаторов, 67 к2",30.260968,59.843025,"Супермаркеты,Доставка продуктов"
70000001067678787,"Технолог, магазин","бульвар Новаторов, 13",30.267259,59.849361,Супермаркеты
70000001033024445,"Пятёрочка, супермаркет","Счастливая улица, 5",30.271944,59.844855,"Супермаркеты,Доставка продуктов"
5348553838609743,"Реалъ, универсам","Народного Ополчения проспект, 10",30.28118,59.850096,Супермаркеты
70000001020564188,"Пятёрочка, супермаркет","Счастливая улица, 14",30.276813,59.843815,"Супермаркеты,Доставка продуктов"
5348552840270068,"Аэмко, супермаркет","Дачный проспект, 24 к2",30.257922,59.840848,Супермаркеты
70000001066148358,"Вместе, универсам","бульвар Новаторов, 6",30.269469,59.852614,Супермаркеты
70000001076186250,Минимаркет,"улица Зины Портновой, 17 к1",30.255578,59.852927,Супермаркеты
