id,name,address_name,lon,lat,rubrics
70000001069441574,"СберБанк, банкомат","Гладкий остров, 1",30.235862,59.903276,Банкоматы
70000001061124019,"Банк Санкт-Петербург, банкомат","Межевой канал, 5",30.250573,59.911106,Банкоматы
70000001020598567,"СберБанк, банкомат","Межевой канал, 3 к2",30.252885,59.910966,Банкоматы
70000001024354141,"Почта Банк, банкомат","Двинская улица, 15",30.242787,59.909562,Банкоматы
70000001006492380,"Севергазбанк, банкомат","улица Маршала Говорова, 35 лит А",30.279418,59.888696,Банкоматы
70000001047259196,"Альфа-Банк, банкомат","площадь Стачек, 7",30.272282,59.900644,Банкоматы
70000001075342623,"СберБанк, банкомат","площадь Стачек, 2",30.274591,59.90111,Банкоматы
70000001100408614,"СберБанк, банкомат","улица Трефолева, 10",30.274567,59.889472,Банкоматы
70000001090288610,"ВТБ, банкомат","площадь Стачек, 9",30.273055,59.900075,Банкоматы
70000001075850469,"Т-Банк, банкомат","площадь Стачек, 9",30.272568,59.899817,Банкоматы
70000001030436465,"Т-Банк, банкомат","площадь Стачек, 7",30.272262,59.900669,Банкоматы
5348552838502365,"ВТБ, банкомат","Стачек проспект, 18",30.279339,59.895395,Банкоматы
5348552838585919,"СберБанк, банкомат","площадь Стачек, 9",30.273069,59.900059,Банкоматы
70000001095648953,"СберБанк, банкомат","Стачек проспект, 1",30.274539,59.898812,Банкоматы
5348552839469723,"Газпромбанк, банкомат","площадь Стачек, 7",30.272269,59.90066,Банкоматы
70000001036561084,"Совкомбанк, банкомат","Промышленная улица, 19",30.260856,59.897172,Банкоматы
70000001007401089,"СберБанк, банкомат","Урхов переулок, 7 лит А",30.281619,59.893063,Банкоматы
70000001075850464,"СберБанк, банкомат","площадь Стачек, 9",30.272675,59.899841,Банкоматы
5348552838585915,"СберБанк, банкомат","Промышленная улица, 7",30.266671,59.898074,Банкоматы
70000001036259141,"ВТБ, банкомат","Урхов переулок, 7 лит А",30.281617,59.893025,Банкоматы
70000001033749276,"Промсвязьбанк, банкомат","площадь Стачек, 9",30.273083,59.900042,Банкоматы
5348552838639922,"Морской Банк, банкомат","Гапсальская улица, 5",30.257332,59.911153,Банкоматы
5348552840810698,"СберБанк, банкомат","площадь Стачек, 2",30.275076,59.901045,Банкоматы
70000001104234214,"СберБанк, банкомат","площадь Стачек, 9",30.272408,59.89977,Банкоматы
5348552840812939,"Банк Санкт-Петербург, банкомат","площадь Стачек, 2",30.274591,59.90111,Банкоматы
70000001077418760,"Райффайзенбанк, банкомат","площадь Стачек, 9",30.273049,59.900084,Банкоматы
70000001094135284,"Россельхозбанк, банкомaт","улица Швецова, 12 лит А",30.283341,59.896541,Банкоматы
70000001100605601,"СберБанк, банкомат","Межевой канал, 1а",30.255596,59.911107,Банкоматы
5348552838503122,"ВТБ, банкомат","Промышленная улица, 19",30.260856,59.897172,Банкоматы
5348552838642195,"Банк Санкт-Петербург, банкомат","Стачек проспект, 39",30.268724,59.887838,Банкоматы
5348553838564253,"Газпромбанк, банкомат","улица Маршала Говорова, 41",30.2884,59.896362,Банкоматы
5348553838962248,"Райффайзенбанк, банкомат","Урхов переулок, 7 лит А",30.281605,59.893068,Банкоматы
70000001007433341,"Банк Санкт-Петербург, банкомат","Стачек проспект, 18",30.277194,59.894692,Банкоматы
5348552838496531,"Альфа-Банк, банкомат","Стачек проспект, 99",30.248821,59.858817,Банкоматы
70000001094179710,"ВТБ, банкомат","Стачек проспект, 99",30.24848,59.858858,Банкоматы
70000001059706307,"СберБанк, банкомат","Стачек проспект, 99",30.248848,59.858829,Банкоматы
70000001060192966,"СберБанк, банкомат","Стачек проспект, 105 к1",30.241037,59.855178,Банкоматы
70000001039834361,"Т-Банк, банкомат","Стачек проспект, 99",30.248468,59.858865,Банкоматы
70000001090357697,"Т-Банк, банкомат","дорога на Турухтанные острова, 6 к2",30.25139,59.867482,Банкоматы
70000001044846233,"Т-Банк, банкомат","Стачек проспект, 105 к1",30.241037,59.855178,Банкоматы
5348552838561018,"Райффайзенбанк, банкомат","Стачек проспект, 99",30.248834,59.858823,Банкоматы
5348552838502889,"ВТБ, банкомат","Корабельная улица, 6",30.241855,59.875053,Банкоматы
70000001018060827,"Альфа-Банк, банкомат","Стачек проспект, 99",30.248446,59.858878,Банкоматы
70000001024409314,"Почта Банк, банкомат","Стачек проспект, 105",30.239999,59.85516,Банкоматы
70000001025368674,"Почта Банк, банкомат","улица Маршала Казакова, 1 к1 лит Д",30.247171,59.860189,Банкоматы
70000001055228250,"Промсвязьбанк, банкомат","Корабельная улица, 6",30.241855,59.875053,Банкоматы
70000001084239283,"СберБанк, банкомат",,30.229996,59.885546,Банкоматы
70000001109487418,"ВТБ, банкомат","улица Маршала Казакова, 1",30.249365,59.860834,Банкоматы
70000001041112846,"Т-Банк, банкомат","Стачек проспект, 90",30.261015,59.867798,Банкоматы
70000001094509175,"Т-Банк, банкомат","улица Васи Алексеева, 4 ст1",30.264354,59.879923,Банкоматы
70000001069071538,"СберБанк, банкомат","Стачек проспект, 70",30.26156,59.879659,Банкоматы
5348552839741035,"ВТБ, банкомат","Стачек проспект, 90 к2",30.261086,59.867266,Банкоматы
5348553838608884,"Альфа-Банк, банкомат","улица Васи Алексеева, 6",30.265139,59.879729,Банкоматы
70000001092603887,"СберБанк, банкомат","Стачек проспект, 47 лит Ш",30.258025,59.8795,Банкоматы
5348552839950926,"СберБанк, банкомат","Стачек проспект, 90 к2",30.261086,59.867266,Банкоматы
70000001089477216,"Т-Банк, банкомат","улица Маршала Говорова, 16",30.269134,59.881435,Банкоматы
70000001095658440,"ВТБ, банкомат","улица Васи Алексеева, 6",30.265329,59.879725,Банкоматы
70000001021869028,"СберБанк, банкомат","Стачек проспект, 90",30.260858,59.868324,Банкоматы
70000001103061230,"ВТБ, банкомат","Стачек проспект, 69",30.259194,59.869748,Банкоматы
70000001096317064,"СберБанк, банкомат","Стачек проспект, 59",30.258008,59.874296,Банкоматы
70000001082347991,"Т-Банк, банкомат","улица Васи Алексеева, 6",30.265504,59.879776,Банкоматы
5348552839741036,"ВТБ, банкомат","Стачек проспект, 70",30.26156,59.879659,Банкоматы
70000001094561365,"СберБанк, банкомат","Стачек проспект, 73",30.259809,59.868019,Банкоматы
70000001032405148,"Совкомбанк, банкомат","Стачек проспект, 88",30.26067,59.869136,Банкоматы
70000001036676009,"Банк Санкт-Петербург, банкомат","Стачек проспект, 47 лит Ш",30.258025,59.8795,Банкоматы
70000001065048451,"СберБанк, банкомат","улица Маршала Говорова, 12 к1",30.26638,59.878836,Банкоматы
70000001060389993,"СберБанк, банкомат","Краснопутиловская улица, 55",30.274838,59.867484,Банкоматы
70000001040201782,"Т-Банк, банкомат","улица Васи Алексеева, 1",30.263172,59.87958,Банкоматы
70000001064484164,"Альфа-Банк, банкомат","Стачек проспект, 47 лит Ш",30.261356,59.881239,Банкоматы
5348553838627208,"Газпромбанк, банкомат","Стачек проспект, 48 к2",30.265683,59.88329,Банкоматы
5348552838561650,"Райффайзенбанк, банкомат","улица Васи Алексеева, 6",30.265462,59.879787,Банкоматы
70000001040109753,"Банк Санкт-Петербург, банкомат","Стачек проспект, 70",30.261762,59.879859,Банкоматы
70000001057186580,"Банк Санкт-Петербург, банкомат","Стачек проспект, 47 лит Ш",30.259947,59.879839,Банкоматы
70000001023683293,"СберБанк, банкомат","Народного Ополчения проспект, 2",30.284787,59.859556,Банкоматы
5348552838563917,"Россия, банкомат","Стачек проспект, 47",30.258025,59.8795,Банкоматы
5348552838622270,"ЮниКредит банк, банкомат","улица Васи Алексеева, 6",30.265522,59.879677,Банкоматы
5348552839752114,"Банк Санкт-Петербург, банкомат","Стачек проспект, 90 к2",30.261086,59.867266,Банкоматы
70000001023073349,"Газпромбанк, банкомат","Кронштадтская улица, 10",30.255181,59.87415,Банкоматы
70000001032736023,"Почта Банк, банкомат","улица Васи Алексеева, 22",30.273493,59.877491,Банкоматы
70000001043021610,"ЮниКредит банк, банкомат","Автовская улица, 15",30.268269,59.867536,Банкоматы
70000001055228301,"Промсвязьбанк, банкомат","Стачек проспект, 47",30.258025,59.8795,Банкоматы
70000001056539283,"Экспобанк, банкомат","Стачек проспект, 94",30.261341,59.866755,Банкоматы
70000001064805087,"Банк Санкт-Петербург, банкомат","Стачек проспект, 106",30.2624,59.861365,Банкоматы
70000001065116052,"Банк Санкт-Петербург, банкомат","Стачек проспект, 47 лит Е",30.258025,59.8795,Банкоматы
70000001067320520,"Промсвязьбанк, банкомат","улица Васи Алексеева, 4 ст1",30.264338,59.879927,Банкоматы
70000001070158092,"Промсвязьбанк, банкомат","улица Маршала Говорова, 29Ш",30.27487,59.885241,Банкоматы
70000001092603884,"ВТБ, банкомат","Стачек проспект, 47 лит А",30.258471,59.878377,Банкоматы
70000001103017318,"Почта Банк, банкомат","Стачек проспект, 69",30.259436,59.869319,Банкоматы
70000001109537479,"ВТБ, банкомат","Краснопутиловская улица, 28",30.271503,59.870291,Банкоматы
70000001103700770,"ВТБ, банкомат","проспект Ветеранов, 95",30.20756,59.833657,Банкоматы
70000001077480822,"Т-Банк, банкомат","проспект Ветеранов, 114 к4",30.195361,59.832437,Банкоматы
70000001104656880,"СберБанк, банкомат","проспект Ветеранов, 101",30.205019,59.834112,Банкоматы
70000001029419305,"Совкомбанк, банкомат","проспект Ветеранов, 105",30.201712,59.833504,Банкоматы
70000001101574536,"СберБанк, банкомат","проспект Маршала Жукова, 76 к1",30.190233,59.827852,Банкоматы
70000001060697564,"Т-Банк, банкомат","проспект Маршала Жукова, 60 к1 лит А",30.204095,59.838388,Банкоматы
70000001024410821,"Почта Банк, банкомат","проспект Ветеранов, 95",30.207257,59.833602,Банкоматы
5348552838585710,"СберБанк, банкомат","проспект Ветеранов, 114 к1",30.196496,59.832608,Банкоматы
5348552838590493,"СберБанк, банкомат","проспект Ветеранов, 95",30.207483,59.833606,Банкоматы
70000001033923139,"Райффайзенбанк, банкомат","проспект Ветеранов, 101",30.204866,59.834042,Банкоматы
70000001030360561,"Т-Банк, банкомат","проспект Ветеранов, 36 к2",30.247755,59.842831,Банкоматы
70000001091208421,"ВТБ, банкомат","проспект Ветеранов, 36 к2",30.247349,59.843128,Банкоматы
5348552839741038,"ВТБ, банкомат","проспект Маршала Жукова, 36 к1",30.224392,59.853149,Банкоматы
70000001029848237,"СберБанк, банкомат","Дачный проспект, 9 к1",30.244374,59.846833,Банкоматы
70000001068864851,"Т-Банк, банкомат","улица Бурцева, 23 лит А",30.214003,59.83567,Банкоматы
5348552838590489,"СберБанк, банкомат","проспект Ветеранов, 43",30.241862,59.842124,Банкоматы
70000001103766471,"Т-Банк, банкомат","проспект Ветеранов, 53 лит И",30.239086,59.840917,Банкоматы
70000001093369780,"ВТБ, банкомат",,30.253593,59.841733,Банкоматы
70000001103700771,"ВТБ, банкомат","проспект Ветеранов, 78",30.215399,59.832985,Банкоматы
70000001102584836,"СберБанк, банкомат","Стойкости, 8 лит В",30.215524,59.827691,Банкоматы
70000001095713540,"Т-Банк, банкомат","Ленинский проспект, 101 лит Ж",30.230368,59.851103,Банкоматы
70000001103700773,"ВТБ, банкомат","проспект Ветеранов, 43",30.241999,59.842289,Банкоматы
70000001103656842,"Ozon Банк, банкомат","улица Солдата Корзуна, 1 к2",30.21614,59.833847,Банкоматы
70000001022963749,"СберБанк, банкомат","проспект Ветеранов, 56",30.237943,59.838005,Банкоматы
5348552841165097,"Райффайзенбанк, банкомат","Дачный проспект, 9 к1",30.244374,59.846833,Банкоматы
5348552838501189,"Газпромбанк, банкомат","проспект Ветеранов, 89",30.214512,59.834088,Банкоматы
70000001020713084,"Банк Санкт-Петербург, банкомат",,30.249908,59.842278,Банкоматы
70000001088273053,"Совкомбанк, банкомат","проспект Ветеранов, 52 к1",30.240758,59.840461,Банкоматы
5348552838537834,"Уралсиб, банкомат","проспект Ветеранов, 76",30.220754,59.833943,Банкоматы
5348552838590492,"СберБанк, банкомат","проспект Ветеранов, 89",30.214311,59.834167,Банкоматы
70000001017873669,"СберБанк, банкомат","Ленинский проспект, 103",30.230368,59.851103,Банкоматы
70000001023276570,"Абсолют банк, банкомат","Ленинский проспект, 109",30.240694,59.851452,Банкоматы
70000001044777599,"Промсвязьбанк, банкомат","Ленинский проспект, 103",30.230368,59.851103,Банкоматы
5348552838590491,"СберБанк, банкомат","проспект Ветеранов, 78",30.217436,59.833179,Банкоматы
5348552839752160,"Банк Санкт-Петербург, банкомат",,30.253593,59.841733,Банкоматы
5348552841675514,"Райффайзенбанк, банкомат","проспект Ветеранов, 52 к1",30.239327,59.839908,Банкоматы
70000001006545050,"МТС Банк, банкомат","бульвар Новаторов, 98",30.253824,59.84118,Банкоматы
70000001025325562,"Почта Банк, банкомат","улица Лёни Голикова, 3",30.228573,59.847301,Банкоматы
70000001027380534,"Почта Банк, банкомат","проспект Ветеранов, 43",30.241286,59.841898,Банкоматы
70000001057261360,"Почта Банк, банкомат","Ленинский проспект, 115",30.249098,59.851375,Банкоматы
70000001097597515,"Банк Санкт-Петербург, банкомат","проспект Ветеранов, 56",30.237943,59.838005,Банкоматы
70000001082655719,"СберБанк, банкомат","бульвар Новаторов, 98",30.253941,59.841119,Банкоматы
70000001096763993,"Т-Банк, банкомат","проспект Ветеранов, 16",30.253925,59.84562,Банкоматы
70000001099663880,"ВТБ, банкомат","Ленинский проспект, 124",30.262497,59.852301,Банкоматы
70000001077500923,"Т-Банк, банкомат","Ленинский проспект, 128 к2",30.2681,59.852613,Банкоматы
70000001059344031,"Альфа-Банк, банкомат","Ленинский проспект, 130",30.27168,59.852253,Банкоматы
70000001051371570,"Т-Банк, банкомат","бульвар Новаторов, 11 к2 лит А",30.268138,59.850538,Банкоматы
5348552838590517,"СберБанк, банкомат","Ленинский проспект, 129",30.269928,59.851431,Банкоматы
70000001041771473,"Т-Банк, банкомат","Ленинский проспект, 122",30.259865,59.852478,Банкоматы
70000001082995912,"СберБанк, банкомат","Ленинский проспект, 128 к2",30.26818,59.852612,Банкоматы
70000001102739814,"ВТБ, банкомат",,30.267228,59.85171,Банкоматы
70000001103906078,"СберБанк, банкомат","Счастливая улица, 13",30.273956,59.843862,Банкоматы
70000001020767485,"СберБанк, банкомат","Ленинский проспект, 117 к1",30.255523,59.851155,Банкоматы
70000001082368690,"ВТБ, банкомат","Ленинский проспект, 128 к2",30.268441,59.852899,Банкоматы
70000001103054603,"Т-Банк, банкомат","Ленинский проспект, 137 лит Б",30.276625,59.851433,Банкоматы
70000001040916031,"Альфа-Банк, банкомат","бульвар Новаторов, 11 к2 лит А",30.268133,59.850007,Банкоматы
70000001100642329,"СберБанк, банкомат","Дачный проспект, 18",30.254835,59.842404,Банкоматы
70000001075314393,"Т-Банк, банкомат","Народного Ополчения проспект, 6",30.281486,59.852497,Банкоматы
70000001060280047,"Банк Санкт-Петербург, банкомат",,30.269664,59.851679,Банкоматы
70000001068866996,"Т-Банк, банкомат","улица Зины Портновой, 36",30.256649,59.849701,Банкоматы
70000001043593567,"Газпромбанк, банкомат","Ленинский проспект, 124",30.261243,59.852304,Банкоматы
70000001053357807,"Райффайзенбанк, банкомат","бульвар Новаторов, 11 к2 лит А",30.268602,59.849478,Банкоматы
5348553838959388,"МТС Банк, банкомат","бульвар Новаторов, 8",30.269295,59.85104,Банкоматы
70000001006816216,"Совкомбанк, банкомат","Ленинский проспект, 128",30.264414,59.852296,Банкоматы
70000001035625908,"Россельхозбанк, банкомaт","Ленинский проспект, 125",30.262482,59.851534,Банкоматы
5348552838590516,"СберБанк, банкомат","Ленинский проспект, 128 к2",30.268273,59.852899,Банкоматы
70000001051411463,"СберБанк, банкомат","бульвар Новаторов, 11 к2 лит А",30.268155,59.85043,Банкоматы
70000001103985284,"Т-Банк, банкомат","Счастливая улица, 5",30.271944,59.844855,Банкоматы
70000001099741886,"Райффайзенбанк, банкомат","Ленинский проспект, 128",30.266258,59.852292,Банкоматы
70000001109664458,"СберБанк, банкомат","Народного Ополчения проспект, 19",30.279745,59.848793,Банкоматы
70000001103061231,"ВТБ, банкомат","Ленинский проспект, 135 лит А",30.275247,59.851401,Банкоматы
5348553838564218,"Газпромбанк, банкомат","Ленинский проспект, 128 к2",30.268407,59.8529,Банкоматы
70000001102990467,"Райффайзенбанк, банкомат","Ленинский проспект, 128",30.266258,59.852292,Банкоматы
70000001022756872,"Банк Санкт-Петербург, банкомат","Дачный проспект, 19 к1",30.256568,59.840453,Банкоматы
70000001017482111,"Банк Санкт-Петербург, банкомат","Ленинский проспект, 125",30.263173,59.851488,Банкоматы
5348552838502353,"ВТБ, банкомат","Народного Ополчения проспект, 6",30.281491,59.852481,Банкоматы
5348552838590530,"СберБанк, банкомат","бульвар Новаторов, 11 к2 лит А",30.268566,59.849478,Банкоматы
5348552838666026,"Русский Стандарт, банкомат","Ленинский проспект, 138",30.279098,59.852287,Банкоматы
70000001006557476,"Всероссийский банк развития регионов, банкомат","Народного Ополчения проспект, 26 к3",30.270242,59.836935,Банкоматы
70000001007422919,"Кредит Европа банк, банкомат","Ленинский проспект, 128 к2",30.268247,59.852899,Банкоматы
70000001019146538,"Россия, банкомат","бульвар Новаторов, 11 к2 лит А",30.268637,59.849477,Банкоматы
70000001023684985,"Почта Банк, банкомат","Ленинский проспект, 135 лит А",30.274888,59.851505,Банкоматы
70000001034990685,"Почта Банк, банкомат","Народного Ополчения проспект, 101",30.270622,59.838715,Банкоматы
70000001036498128,"Московский кредитный банк, банкомат","бульвар Новаторов, 8 лит А",30.269204,59.850182,Банкоматы
