id,name,address_name,lon,lat,rubrics
5348552838656894,Детский сад №69,"Двинская улица, 10 к4",30.248703,59.907938,Детские сады
70000001039602188,Детский сад №74,"Канонерский остров, 20 лит А",30.219288,59.902457,Детские сады
70000001039579498,Детский сад №74,"Канонерский остров, 21 ст1",30.218449,59.902798,Детские сады
5348552838657096,Детский сад №16,"Промышленная улица, 24",30.264998,59.897248,Детские сады
70000001019688334,"Светлый город, нейро-логопедический детский центр и сад","улица Трефолева, 6/30",30.276136,59.889075,"Частные детские сады,Логопед,Нейропсихолог,Дефектолог,Центры адаптивного спорта,Центры раннего развития детей"
5348552838604218,"Детский сад №36, детский сад комбинированного вида","Балтийская улица, 4",30.278893,59.898109,Детские сады
70000001024948370,Детский сад №11,"Севастопольская улица, 35",30.26536,59.890428,Детские сады
70000001017955921,Мечтайка,"Тракторная улица, 7",30.281106,59.898866,"Частные детские сады,Центры раннего развития детей,Логопед,Психолог"
5348552838657095,Детский сад №16,"Промышленная улица, 20 лит А",30.266607,59.897424,Детские сады
5348552838656925,"Детский сад №75, детский сад комбинированного вида","улица Трефолева, 38",30.263807,59.89161,Детские сады
70000001037804554,Детский сад №11,"Севастопольская улица, 9",30.26437,59.89519,Детские сады
5348552838605298,Детский сад №49,"Огородный переулок, 3",30.269399,59.886322,Детские сады
5348552838602278,"Детский сад №1, детский сад с приоритетным осуществлением деятельности по художественно-эстетическому развитию детей","улица Маршала Говорова, 24 к2",30.274001,59.887427,Детские сады
5348552838602333,Детский сад №11,"Севастопольская улица, 11",30.265089,59.894856,Детские сады
5348552838656926,"Детский сад №75, детский сад комбинированного вида","улица Трефолева, 10а",30.274384,59.88913,Детские сады
5348552840431639,"Детский сад №36, детский сад комбинированного вида","Стачек проспект, 16 лит А",30.279706,59.897101,Детские сады
70000001040712845,"Детский сад №36, детский сад комбинированного вида","Стачек проспект, 16 лит А",30.278466,59.89708,Детские сады
70000001041380330,"Детский сад №1, детский сад с приоритетным осуществлением деятельности по художественно-эстетическому развитию детей","Огородный переулок, 8",30.273114,59.886536,Детские сады
5348552838604375,Детский сад №65,"проспект Маршала Жукова, 26 к2",30.234004,59.858393,Детские сады
5348552838656937,"Детский сад №55, детский сад компенсирующего вида","улица Маршала Казакова, 10 к2",30.243805,59.858347,Детские сады
5348552838604262,Детский сад №45,"Стачек проспект, 89 к2",30.251581,59.861047,Детские сады
5348552840336850,Детский сад №53,"улица Маршала Казакова, 5 к2",30.243289,59.860863,Детские сады
5348552838604328,Детский сад №57,"Стачек проспект, 105 к3",30.237113,59.856139,Детские сады
5348552838656938,Детский сад №56,"Стачек проспект, 107 к2",30.235875,59.854317,Детские сады
5348552838602380,Детский сад №18,"проспект Маршала Жукова, 32 к2",30.228905,59.854875,Детские сады
5348552838604337,Детский сад №58,"Стачек проспект, 85 к2",30.25285,59.861685,Детские сады
5348552838670503,"Альтернатива, центр дошкольного развития","Морской Пехоты, 8 к3",30.246463,59.861556,"Частные детские сады,Центры раннего развития детей"
70000001043352457,"Эники-Беники, домашний ясли-сад","Стачек проспект, 105 к2 лит Ж",30.237412,59.857203,Частные детские сады
5348553838484794,"Монблан, детский развивающий центр","улица Васи Алексеева, 9 к1",30.268875,59.877102,"Частные детские сады,Центры раннего развития детей,Курсы творчества для детей,Спортивные секции,Логопед"
5348552838604409,Детский сад №72,"Автовская улица, 10",30.265648,59.867585,Детские сады
5348552838604461,Детский сад №409,"улица Зайцева, 35",30.274644,59.878379,Детские сады
5348552838604400,Детский сад №71,"Краснопутиловская улица, 17",30.265982,59.87113,Детские сады
5348552838604439,Детский сад №196,"Стачек проспект, 82 к2",30.260982,59.872121,Детские сады
5348552838602323,Детский сад №8,"Автовская улица, 23",30.273228,59.869889,Детские сады
5348552838602592,Детский сад №70,"Автовская улица, 36",30.273782,59.875587,Детские сады
70000001032772358,"Тиктак, детский развивающий центр","Стачек проспект, 74/1",30.259341,59.876975,"Частные детские сады,Центры раннего развития детей,Логопед,Обучение танцам,Организация праздников"
5348552838656901,"Детский сад №3, Кировского района","Трамвайный проспект, 11 к4",30.260796,59.854566,Детские сады
5348552838604449,Детский сад №362,"улица Примакова, 18 лит А",30.277039,59.868023,Детские сады
70000001104614544,"Мишкин домик, частный детский сад","улица Зенитчиков, 5",30.261426,59.873258,Частные детские сады
5348552838604363,Детский сад №61,"Краснопутиловская улица, 41",30.270898,59.867124,Детские сады
5348552838656886,Детский сад №66,"улица Зины Портновой, 17 к2",30.253999,59.854436,Детские сады
5348553838553223,Детский сад №12,"Стачек проспект, 59 к4",30.256809,59.873984,Детские сады
5348552838602314,"Детский сад №5, детский сад общеразвивающего вида с приоритетным осуществлением деятельности по познавательно-речевому развитию детей","улица Васи Алексеева, 5",30.267852,59.877848,Детские сады
5348552838604234,"Детский сад №41, детский сад комбинированного вида","Новостроек, 6",30.26641,59.876347,Детские сады
5348552838602305,Детский сад №4,"Стачек проспект, 55",30.255496,59.876825,Детские сады
5348552839685728,Детский сад №71,"Маринеско, 4",30.265073,59.869885,Детские сады
5348552838602350,Детский сад №12,"Стачек проспект, 67 к7",30.257672,59.872033,Детские сады
5348552838604278,Детский сад №47,"Автовская улица, 11 лит А",30.270057,59.867538,Детские сады
5348552838602267,"Дельта, частный детский сад","Новостроек, 9",30.26507,59.875056,Частные детские сады
5348552838602593,Детский сад №70,"Новостроек, 22",30.272492,59.87528,Детские сады
5348552838604286,Детский сад №49,"Огородный переулок, 11",30.272941,59.885573,Детские сады
5348552838604307,Детский сад №51,"улица Васи Алексеева, 19",30.272945,59.875768,Детские сады
5348552838656899,"Город солнца, детский сад №73","Кронштадтская улица, 20",30.25783,59.869607,Детские сады
5348553838838555,"Ноль+, частный детский сад","улица Васи Алексеева, 14",30.269785,59.879863,"Частные детские сады,Логопед,Языковые школы"
70000001035578035,"Детский сад №41, детский сад комбинированного вида","Новостроек, 35",30.272591,59.872755,Детские сады
70000001041161114,Детский сад №5,"улица Возрождения, 9",30.271562,59.880959,Детские сады
70000001033744448,Комиссия по комплектованию детских садов,"улица Зины Портновой, 3",30.253935,59.856506,Социальные службы
70000001052617766,"Морошка, частная школа","проспект Ветеранов, 114 к1",30.196125,59.832517,"Частные детские сады,Школы,Детские лагеря,Центры раннего развития детей,Логопед"
5348552838604379,Детский сад №67,"проспект Маршала Жукова, 70 к3",30.195941,59.831299,Детские сады
5348552838656881,"Детский сад №63, детский сад комбинированного вида","Стойкости, 26 к2",30.202368,59.826378,Детские сады
5348552838604245,Детский сад №43,"улица Бурцева, 6",30.20349,59.83695,Детские сады
5348552838604202,Детский сад №32,"улица Генерала Симоняка, 1 к2",30.201964,59.831752,Детские сады
5348552838604239,Детский сад №42,"Стойкости, 41 к2",30.194848,59.828846,Детские сады
5348552838604252,Детский сад №44,"проспект Маршала Жукова, 56 к3 лит А",30.206843,59.839813,Детские сады
70000001024899966,Детский сад №15,"проспект Ветеранов, 105 к2",30.201949,59.834443,Детские сады
5348552838656878,Детский сад №37,"проспект Ветеранов, 95 к2",30.207354,59.834504,Детские сады
5348552838604351,Детский сад №60,"проспект Ветеранов, 112 к3",30.199218,59.829935,Детские сады
70000001104102665,"Гнездо, частный детский сад","проспект Ветеранов, 75 к1",30.22915,59.837602,"Частные детские сады,Центры раннего развития детей"
5348552838604319,Детский сад №54,"проспект Маршала Жукова, 34 к2",30.22854,59.85402,Детские сады
5348552838604293,"Детский сад №50, детский сад комбинированного вида","Народного Ополчения проспект, 173 к2",30.218855,59.826137,Детские сады
5348552841406800,"Ручеёк, центр раннего развития","проспект Маршала Жукова, 48 к1",30.211911,59.843845,"Частные детские сады,Центры раннего развития детей,Логопед,Помощь в обучении,Языковые школы"
5348552841362052,Детский сад №35,"Стойкости, 19 к2",30.210079,59.828507,Детские сады
5348552838602441,"Детский сад №30, с приоритетным осуществлением деятельности по художественно-эстетическому развитию детей","улица Лёни Голикова, 64",30.242961,59.839163,Детские сады
5348552838604344,Детский сад №59,"улица Солдата Корзуна, 34 к2",30.220529,59.83297,Детские сады
5348552838656890,Детский сад №39,"улица Козлова, 33 к2",30.222235,59.833486,Детские сады
5348553838493350,"Эрудит, детский развивающий центр","улица Солдата Корзуна, 4",30.210618,59.842287,"Частные детские сады,Центры раннего развития детей,Логопед,Психолог,Языковые школы"
5348552838604224,Детский сад №40,"проспект Ветеранов, 94",30.211144,59.831161,Детские сады
70000001059713150,Детский сад №52,"проспект Ветеранов, 5 к2",30.250089,59.845898,Детские сады
70000001023444563,"Дюшес, детский центр","улица Солдата Корзуна, 4",30.210898,59.84277,"Частные детские сады,Центры раннего развития детей,Логопед,Дневные детские лагеря,Художественные курсы"
5348552838602386,Детский сад №20,"улица Лёни Голикова, 37 к3",30.230359,59.841276,Детские сады
5348552838604370,Детский сад №62,"Дачный проспект, 8 к5",30.248305,59.847324,Детские сады
70000001101856890,"Школа разговорных языков, частный детский сад","проспект Ветеранов, 39",30.239698,59.843391,"Частные детские сады,Центры раннего развития детей"
5348552838604208,Детский сад №34,"улица Танкиста Хрустицкого, 29 лит А",30.253858,59.835047,Детские сады
5348552838604205,Детский сад №33,"Дачный проспект, 3 к3",30.239254,59.847747,Детские сады
70000001024948441,Детский сад №33,"Стачек проспект, 192 к2 лит А",30.234537,59.848644,Детские сады
5348552838604314,Детский сад №52,"проспект Ветеранов, 1 к2",30.252528,59.847547,Детские сады
5348552838602365,Детский сад №14,"улица Козлова, 47 к2",30.225168,59.829026,Детские сады
5348552838604198,"Детский сад №31, детский сад общеразвивающего вида","улица Солдата Корзуна, 5 к2",30.217729,59.830525,Детские сады
5348552838602318,Детский сад №7,"Стачек проспект, 150",30.250268,59.853993,Детские сады
5348552838604270,Детский сад №46,"Народного Ополчения проспект, 179 к2",30.215684,59.825827,Детские сады
5348552838602431,Детский сад №27,"улица Лёни Голикова, 24 к2",30.234737,59.845348,Детские сады
5348552838604222,Детский сад №38,"улица Лёни Голикова, 23 к2",30.228361,59.844258,Детские сады
5348552838602438,Детский сад №29,"улица Козлова, 17 к2",30.217813,59.838362,Детские сады
5348552840268089,"Талантика, детский сад Монтессори","проспект Ветеранов, 75 к1",30.229419,59.837484,"Частные детские сады,Центры раннего развития детей"
5348552840833521,"Каролина, частный детский сад","Дачный проспект, 2 к2",30.242512,59.849917,Частные детские сады
70000001019935959,"Ноль+, частный детский сад","Ленинский проспект, 114",30.243095,59.853604,Частные детские сады
5348552838602284,"Детский сад №2, компенсирующего вида","Счастливая улица, 11",30.271816,59.843642,Детские сады
5348552838796960,Детский сад №22,"Счастливая улица, 3",30.270249,59.844808,Детские сады
5348552838602370,Детский сад №17,"улица Подводника Кузьмина, 40",30.264238,59.846008,Детские сады
5348552838602422,Детский сад №26,"улица Подводника Кузьмина, 15",30.260454,59.844707,Детские сады
5348552838602396,Детский сад №21,"бульвар Новаторов, 42",30.273434,59.846274,Детские сады
5348552838604388,Детский сад №68,"Дачный проспект, 26 к2",30.261206,59.841082,Детские сады
5348552841312092,Детский сад №48,"Дачный проспект, 21 к4",30.254782,59.839233,Детские сады
5348552838602414,Детский сад №25,"Дачный проспект, 14 к2",30.254025,59.844148,Детские сады
5348552838602357,"Детский сад №13, детский сад компенсирующего вида","бульвар Новаторов, 15",30.266109,59.849783,Детские сады
5348552838602411,Детский сад №24,"бульвар Новаторов, 74",30.265998,59.841888,Детские сады
5348552840110543,"Детский сад №19, детский сад комбинированного вида деятельности","Народного Ополчения проспект, 11",30.278512,59.84977,Детские сады
5348552838602434,Детский сад №28,"Дачный проспект, 31 к1",30.26126,59.837066,Детские сады
70000001095547079,Детский сад №21,"бульвар Новаторов, 12",30.270488,59.849755,Детские сады
70000001020550963,"Sun School, английский детский сад","Народного Ополчения проспект, 10",30.282295,59.850881,"Частные детские сады,Языковые школы"
5348552838602406,Детский сад №23,"Народного Ополчения проспект, 95",30.269593,59.840304,Детские сады
5348552838602330,"Детский сад №10, Кировского района","бульвар Новаторов, 7",30.265942,59.853022,Детские сады
70000001020315536,"Детский сад №19, детский сад комбинированного вида деятельности","Народного Ополчения проспект, 10",30.282303,59.850212,Детские сады
